{
  "65441": {
    "noradId": "65441",
    "tle": [
      "1 65441C 25194H   25283.39423611 -.02279300  00000+0 -90368-1 0  2837",
      "2 65441  97.6031 136.1109 0002139  86.6317 288.1846 15.27787480    12"
    ]
  },
  "65442": {
    "noradId": "65442",
    "tle": [
      "1 65442C 25194J   25283.39840278 -.00940630  00000+0 -24413-1 0  2837",
      "2 65442  97.6031 136.0701 0002200  81.7100 212.9349 15.39987953    18"
    ]
  },
  "65443": {
    "noradId": "65443",
    "tle": [
      "1 65443C 25194K   25283.39145833 -.02280500  00000+0 -91181-1 0  2834",
      "2 65443  97.6030 136.1165 0002088  87.4150 291.4048 15.27506858    11"
    ]
  },
  "65444": {
    "noradId": "65444",
    "tle": [
      "1 65444C 25194L   25283.39493056 -.01013600  00000+0 -26358-1 0  2836",
      "2 65444  97.6028 136.0157 0001898  97.3476  64.1712 15.40003920    18"
    ]
  },
  "65445": {
    "noradId": "65445",
    "tle": [
      "1 65445C 25194M   25283.39840278 -.01144100  00000+0 -29812-1 0  2837",
      "2 65445  97.6029 136.0297 0001845  99.2279 105.4189 15.40074821    14"
    ]
  },
  "65446": {
    "noradId": "65446",
    "tle": [
      "1 65446C 25194N   25283.39284722 -.01564100  00000+0 -41115-1 0  2830",
      "2 65446  97.6031 136.0444 0001980 109.2702 110.6521 15.40236225    11"
    ]
  },
  "65447": {
    "noradId": "65447",
    "tle": [
      "1 65447C 25194P   25283.39423611 -.01989200  00000+0 -53211-1 0  2835",
      "2 65447  97.6032 136.0848 0001923  95.9114 219.8574 15.40137430    14"
    ]
  },
  "65448": {
    "noradId": "65448",
    "tle": [
      "1 65448C 25194Q   25283.39076389 -.01384600  00000+0 -36248-1 0  2836",
      "2 65448  97.6028 136.0025 0002074  89.3794  27.0189 15.40177448    10"
    ]
  },
  "65449": {
    "noradId": "65449",
    "tle": [
      "1 65449C 25194R   25283.39840278 -.01672700  00000+0 -44085-1 0  2832",
      "2 65449  97.6031 136.1090 0001885  78.8511 305.8236 15.40269238    16"
    ]
  },
  "65450": {
    "noradId": "65450",
    "tle": [
      "1 65450C 25194S   25283.39493056 -.02278500  00000+0 -92439-1 0  2839",
      "2 65450  97.6030 136.0991 0002082  92.3808 257.0275 15.27016422    17"
    ]
  },
  "65451": {
    "noradId": "65451",
    "tle": [
      "1 65451C 25194T   25283.39354167 -.00904210  00000+0 -23475-1 0  2835",
      "2 65451  97.6027 136.0203 0001800  89.1819  76.6611 15.39941076    17"
    ]
  },
  "65452": {
    "noradId": "65452",
    "tle": [
      "1 65452C 25194U   25283.39284722 -.02279700  00000+0 -92230-1 0  2831",
      "2 65452  97.6031 136.1219 0002085  86.5459 308.2204 15.27111237    15"
    ]
  },
  "65453": {
    "noradId": "65453",
    "tle": [
      "1 65453C 25194V   25283.40395833 -.01997500  00000+0 -23825-1 0  2838",
      "2 65453  97.6018 137.6778 0001934  76.3455 317.9786 15.63133627    11"
    ]
  },
  "65454": {
    "noradId": "65454",
    "tle": [
      "1 65454C 25194W   25283.40048611 -.01301500  00000+0 -22831-1 0  2833",
      "2 65454  97.6030 137.2355 0001910  73.4985   7.3490 15.51909983    18"
    ]
  },
  "65455": {
    "noradId": "65455",
    "tle": [
      "1 65455C 25194X   25283.39840278 -.02273300  00000+0 -91583-1 0  2838",
      "2 65455  97.6030 136.1094 0002298  84.4413 296.4874 15.27246515    10"
    ]
  },
  "65456": {
    "noradId": "65456",
    "tle": [
      "1 65456C 25194Y   25283.39840278 -.01780600  00000+0 -47068-1 0  2833",
      "2 65456  97.6029 136.1056 0001823  73.1832 299.4967 15.40289393    12"
    ]
  },
  "65457": {
    "noradId": "65457",
    "tle": [
      "1 65457C 25194Z   25283.39423611 -.02279500  00000+0 -88863-1 0  2833",
      "2 65457  97.6030 136.1191 0002082  87.1988 302.6440 15.28351303    10"
    ]
  },
  "65458": {
    "noradId": "65458",
    "tle": [
      "1 65458C 25195A   25283.39631944  .00019940  00000+0  49708-3 0  2838",
      "2 65458  53.1609 239.1755 0001228  83.0505 231.6134 15.39625451    12"
    ]
  },
  "65459": {
    "noradId": "65459",
    "tle": [
      "1 65459C 25195B   25283.40118056 -.00012842  00000+0 -32046-3 0  2838",
      "2 65459  53.1591 238.7932 0001155  96.9198  65.0799 15.39628039    16"
    ]
  },
  "65460": {
    "noradId": "65460",
    "tle": [
      "1 65460C 25195C   25283.39909722 -.00015808  00000+0 -39443-3 0  2839",
      "2 65460  53.1610 238.6453 0001173  96.1734 133.3538 15.39633285    14"
    ]
  },
  "65461": {
    "noradId": "65461",
    "tle": [
      "1 65461C 25195D   25283.82409722 -.00001450  00000+0 -36195-4 0  2833",
      "2 65461  53.1587 237.0051 0001188  97.9433 146.4410 15.39614206    12"
    ]
  },
  "65462": {
    "noradId": "65462",
    "tle": [
      "1 65462C 25195E   25283.82201389  .00017167  00000+0  42846-3 0  2832",
      "2 65462  53.1592 236.9134 0001166  89.9361 194.4160 15.39591468    15"
    ]
  },
  "65463": {
    "noradId": "65463",
    "tle": [
      "1 65463C 25195F   25283.81993056  .00018139  00000+0  45271-3 0  2836",
      "2 65463  53.1607 236.5638 0001299  94.2192 358.8387 15.39592055    16"
    ]
  },
  "65464": {
    "noradId": "65464",
    "tle": [
      "1 65464C 25195G   25283.39701389  .00005696  00000+0  14211-3 0  2830",
      "2 65464  53.1601 239.1158 0001199  80.9606 265.2355 15.39614691    15"
    ]
  },
  "65465": {
    "noradId": "65465",
    "tle": [
      "1 65465C 25195H   25283.82340278  .00002139  00000+0  53393-4 0  2839",
      "2 65465  53.1591 236.9564 0001192  89.9675 176.3261 15.39607634    15"
    ]
  },
  "65466": {
    "noradId": "65466",
    "tle": [
      "1 65466C 25195J   25283.39840278 -.00012172  00000+0 -30373-3 0  2839",
      "2 65466  53.1591 238.8568 0001160 100.0403  20.8018 15.39627857    12"
    ]
  },
  "65467": {
    "noradId": "65467",
    "tle": [
      "1 65467C 25195K   25283.39770833 -.00005622  00000+0 -14023-3 0  2835",
      "2 65467  53.1587 238.7562 0001116  85.0260  83.4299 15.39633303    14"
    ]
  },
  "65468": {
    "noradId": "65468",
    "tle": [
      "1 65468C 25195L   25283.39562500 -.00070785  00000+0 -17655-2 0  2831",
      "2 65468  53.1608 238.6139 0001049  77.0663 157.0834 15.39700178    19"
    ]
  },
  "65469": {
    "noradId": "65469",
    "tle": [
      "1 65469C 25195M   25283.40118056 -.00027474  00000+0 -68502-3 0  2832",
      "2 65469  53.1597 239.0435 0001229  85.1427 309.8444 15.39666409    11"
    ]
  },
  "65470": {
    "noradId": "65470",
    "tle": [
      "1 65470C 25195N   25283.39840278 -.00032505  00000+0 -81100-3 0  2830",
      "2 65470  53.1603 238.7024 0001131  99.7574  98.3264 15.39651812    19"
    ]
  },
  "65471": {
    "noradId": "65471",
    "tle": [
      "1 65471C 25195P   25283.39770833 -.00000832  00000+0 -20769-4 0  2833",
      "2 65471  53.1607 238.4999 0001333  80.0890 217.1624 15.39617828    10"
    ]
  },
  "65472": {
    "noradId": "65472",
    "tle": [
      "1 65472C 25195Q   25283.40048611 -.00034327  00000+0 -85581-3 0  2836",
      "2 65472  53.1602 239.0508 0001253  73.0656 316.2223 15.39677163    16"
    ]
  },
  "65473": {
    "noradId": "65473",
    "tle": [
      "1 65473C 25195R   25283.39493056 -.00022592  00000+0 -56367-3 0  2833",
      "2 65473  53.1591 238.8680 0001145  96.9838   6.4239 15.39641851    18"
    ]
  },
  "65474": {
    "noradId": "65474",
    "tle": [
      "1 65474C 25195S   25283.39423611 -.00001983  00000+0 -49476-4 0  2839",
      "2 65474  53.1591 238.8195 0001197  92.4799  32.8310 15.39620739    19"
    ]
  },
  "65475": {
    "noradId": "65475",
    "tle": [
      "1 65475C 25195T   25283.40048611 -.00017925  00000+0 -44724-3 0  2838",
      "2 65475  53.1594 238.9433 0001177  88.8450 353.8695 15.39637078    16"
    ]
  },
  "65476": {
    "noradId": "65476",
    "tle": [
      "1 65476C 25195U   25283.39770833 -.00005680  00000+0 -14171-3 0  2833",
      "2 65476  53.1604 238.6537 0001225  98.4969 121.5003 15.39623738    18"
    ]
  },
  "65477": {
    "noradId": "65477",
    "tle": [
      "1 65477C 25195V   25283.40118056 -.00016641  00000+0 -41522-3 0  2838",
      "2 65477  53.1608 238.5802 0001107  93.4288 173.4068 15.39633907    11"
    ]
  },
  "65478": {
    "noradId": "65478",
    "tle": [
      "1 65478C 25195W   25283.39493056 -.00005541  00000+0 -13827-3 0  2837",
      "2 65478  53.1606 238.5070 0001174  94.9282 188.7657 15.39618687    12"
    ]
  },
  "65479": {
    "noradId": "65479",
    "tle": [
      "1 65479C 25195X   25283.39423611  .00009654  00000+0  24098-3 0  2837",
      "2 65479  53.1605 238.4587 0001268 103.6500 201.9776 15.39595385    18"
    ]
  },
  "65480": {
    "noradId": "65480",
    "tle": [
      "1 65480C 25195Y   25283.39701389 -.00001261  00000+0 -22616-4 0  2833",
      "2 65480  53.1582 237.4017 0001209  90.1916  30.7685 15.49314537    13"
    ]
  },
  "65481": {
    "noradId": "65481",
    "tle": [
      "1 65481C 25195Z   25283.39562500  .00004078  00000+0  10177-3 0  2839",
      "2 65481  53.1611 238.5556 0001207  81.0950 180.6916 15.39611279    16"
    ]
  },
  "65482": {
    "noradId": "65482",
    "tle": [
      "1 65482C 25195AA  25283.40118056 -.00005970  00000+0 -10710-3 0  2832",
      "2 65482  53.1583 237.3776 0001323  81.6275  64.5008 15.49319116    19"
    ]
  },
  "65483": {
    "noradId": "65483",
    "tle": [
      "1 65483C 25195AB  25283.39840278  .00001747  00000+0  31338-4 0  2835",
      "2 65483  53.1583 237.3873 0001220  87.0320  45.5145 15.49311679    12"
    ]
  },
  "65484": {
    "noradId": "65484",
    "tle": [
      "1 65484C 25195AC  25283.39701389 -.00000462  00000+0 -82810-5 0  2832",
      "2 65484  53.1583 237.3862 0001185  94.3596  34.2763 15.49311325    16"
    ]
  },
  "65485": {
    "noradId": "65485",
    "tle": [
      "1 65485C 25195AD  25283.82270833 -.01748300  00000+0 -32888-1 0  2833",
      "2 65485  53.1590 235.3538 0000681  87.3476 254.9667 15.49724240    10"
    ]
  }
}